NORAD_CAT_ID,OBJECT_NAME,OBJECT_TYPE,EPOCH,MEAN_MOTION,ECCENTRICITY,INCLINATION,RA_OF_ASC_NODE,ARG_OF_PERICENTER,MEAN_ANOMALY,BSTAR,MEAN_MOTION_DOT,MEAN_MOTION_DDOT,TLE_LINE0,TLE_LINE1,TLE_LINE2,SEMIMAJOR_AXIS,PERIOD,APOGEE,PERIGEE,DECAYED
53607.0,STARLINK-4591,PAYLOAD,2024-07-23 12:17:00,15.08841095,0.0001236,53.2163,26.5473,89.2086,270.9048,0.00017496,2.498e-05,0.0,0 STARLINK-4591,1 53607U 22104V   24205.51181508  .00002498  00000-0  17496-3 0  9995,2 53607  53.2163  26.5473 0001236  89.2086 270.9048 15.08841095105989,6917.877,95.437,540.597,538.887,0.0
53607.0,STARLINK-4591,PAYLOAD,2024-07-23 21:49:19,15.08845878,0.0001242,53.2162,24.7634,92.0248,268.0886,0.00016927,2.408e-05,0.0,0 STARLINK-4591,1 53607U 22104V   24205.90925328  .00002408  00000-0  16927-3 0  9993,2 53607  53.2162  24.7634 0001242  92.0248 268.0886 15.08845878106045,6917.862,95.437,540.587,538.868,0.0
53607.0,STARLINK-4591,PAYLOAD,2024-07-25 11:58:35,15.08840058,0.0001366,53.2136,17.6227,99.8754,260.2392,0.00010751,1.424e-05,0.0,0 STARLINK-4591,1 53607U 22104V   24207.49901630  .00001424  00000-0  10751-3 0  9995,2 53607  53.2136  17.6227 0001366  99.8754 260.2392 15.08840058105599,6917.88,95.438,540.69,538.8,0.0
53607.0,STARLINK-4591,PAYLOAD,2024-07-26 03:52:25,15.08845829,7.62e-05,53.2184,14.6508,94.5534,265.5545,0.00022085,3.229e-05,0.0,0 STARLINK-4591,1 53607U 22104V   24208.16141183  .00003229  00000-0  22085-3 0  9997,2 53607  53.2184  14.6508 0000762  94.5534 265.5545 15.08845829106385,6917.863,95.437,540.255,539.2,0.0
53607.0,STARLINK-4591,PAYLOAD,2024-07-26 18:10:54,15.08845417,0.000107,53.2212,11.9757,95.1954,264.9161,5.0354e-05,5.14e-06,0.0,0 STARLINK-4591,1 53607U 22104V   24208.75757229  .00000514  00000-0  50354-4 0  9991,2 53607  53.2212  11.9757 0001070  95.1954 264.9161 15.08845417105782,6917.864,95.437,540.469,538.989,0.0
53607.0,STARLINK-4591,PAYLOAD,2024-07-26 21:21:40,15.08853787,0.0001239,53.2231,11.3787,95.444,264.6693,-2.2949e-05,-6.53e-06,0.0,0 STARLINK-4591,1 53607U 22104V   24208.89004893 -.00000653  00000-0 -22949-4 0  9993,2 53607  53.2231  11.3787 0001239  95.4440 264.6693 15.08853787106495,6917.838,95.437,540.56,538.846,0.0
53607.0,STARLINK-4591,PAYLOAD,2024-07-27 03:43:13,15.08840332,0.0001508,53.2134,10.1817,65.5607,294.5542,-0.00040139,-6.671e-05,0.0,0 STARLINK-4591,1 53607U 22104V   24209.15501641 -.00006671  00000-0 -40139-3 0  9992,2 53607  53.2134  10.1817 0001508  65.5607 294.5542 15.08840332105845,6917.879,95.438,540.788,538.701,0.0
53607.0,STARLINK-4591,PAYLOAD,2024-07-27 19:37:05,15.08830265,0.0001065,53.2181,7.216,84.6215,275.4898,-0.00012487,-2.274e-05,0.0,0 STARLINK-4591,1 53607U 22104V   24209.81742234 -.00002274  00000-0 -12487-3 0  9990,2 53607  53.2181   7.2160 0001065  84.6215 275.4898 15.08830265106634,6917.91,95.438,540.512,539.038,0.0
53607.0,STARLINK-4591,PAYLOAD,2024-07-28 09:55:33,15.08837957,9.98e-05,53.2166,4.5392,85.0254,275.0852,7.9911e-05,9.84e-06,0.0,0 STARLINK-4591,1 53607U 22104V   24210.41358084  .00000984  00000-0  79911-4 0  9994,2 53607  53.2166   4.5392 0000998  85.0254 275.0852 15.08837957106031,6917.887,95.438,540.442,539.061,0.0
53607.0,STARLINK-4591,PAYLOAD,2024-07-28 17:52:28,15.08854812,0.0001232,53.2176,3.0544,88.6191,271.4942,0.00015641,2.203e-05,0.0,0 STARLINK-4591,1 53607U 22104V   24210.74477322  .00002203  00000-0  15641-3 0  9992,2 53607  53.2176   3.0544 0001232  88.6191 271.4942 15.08854812106080,6917.835,95.437,540.552,538.848,0.0
53607.0,STARLINK-4591,PAYLOAD,2024-07-29 03:24:47,15.08845538,0.0001553,53.2179,1.2679,78.1068,282.0098,0.0001438,2.002e-05,0.0,0 STARLINK-4591,1 53607U 22104V   24211.14221821  .00002002  00000-0  14380-3 0  9994,2 53607  53.2179   1.2679 0001553  78.1068 282.0098 15.08845538106147,6917.863,95.437,540.803,538.654,0.0
53607.0,STARLINK-4591,PAYLOAD,2024-07-29 09:46:20,15.08840973,0.0001418,53.2166,0.0809,76.9796,283.1355,0.00024926,3.681e-05,0.0,0 STARLINK-4591,1 53607U 22104V   24211.40718062  .00003681  00000-0  24926-3 0  9992,2 53607  53.2166   0.0809 0001418  76.9796 283.1355 15.08840973106875,6917.877,95.437,540.723,538.761,0.0
53607.0,STARLINK-4591,PAYLOAD,2024-07-29 17:43:15,15.08845701,0.0001053,53.2161,358.5938,74.5702,285.5406,0.00013549,1.87e-05,0.0,0 STARLINK-4591,1 53607U 22104V   24211.73837690  .00001870  00000-0  13549-3 0  9994,2 53607  53.2161 358.5938 0001053  74.5702 285.5406 15.08845701106923,6917.863,95.437,540.456,539.0,0.0
53607.0,STARLINK-4591,PAYLOAD,2024-07-30 09:37:07,15.08837745,0.000131,53.217,355.6203,79.2752,280.8387,2.7234e-05,1.46e-06,0.0,0 STARLINK-4591,1 53607U 22104V   24212.40078133  .00000146  00000-0  27234-4 0  9990,2 53607  53.2170 355.6203 0001310  79.2752 280.8387 15.08837745106339,6917.887,95.438,540.659,538.846,0.0
53607.0,STARLINK-4591,PAYLOAD,2024-07-30 15:58:39,15.08850131,0.0001644,53.2171,354.4314,78.0585,282.0591,3.156e-06,-2.38e-06,0.0,0 STARLINK-4591,1 53607U 22104V   24212.66573650 -.00000238  00000-0  31560-5 0  9993,2 53607  53.2171 354.4314 0001644  78.0585 282.0591 15.08850131106370,6917.849,95.437,540.852,538.577,0.0
53607.0,STARLINK-4591,PAYLOAD,2024-07-31 14:14:04,15.08835313,0.0001269,53.2148,350.2649,92.2233,267.8904,3.61e-05,2.87e-06,0.0,0 STARLINK-4591,1 53607U 22104V   24213.59310515  .00000287  00000-0  36100-4 0  9992,2 53607  53.2148 350.2649 0001269  92.2233 267.8904 15.08835313107207,6917.895,95.438,540.638,538.882,0.0
53607.0,STARLINK-4591,PAYLOAD,2024-07-31 19:00:13,15.08837354,0.0001225,53.2153,349.3745,85.3515,274.7617,4.4797e-05,4.25e-06,0.0,0 STARLINK-4591,1 53607U 22104V   24213.79182410  .00000425  00000-0  44797-4 0  9990,2 53607  53.2153 349.3745 0001225  85.3515 274.7617 15.08837354106548,6917.888,95.438,540.601,538.906,0.0
53607.0,STARLINK-4591,PAYLOAD,2024-08-01 12:29:27,15.0885476,0.0001116,53.2165,346.1045,79.0579,281.0538,-4.6726e-05,-1.032e-05,0.0,0 STARLINK-4591,1 53607U 22104V   24214.52045397 -.00001032  00000-0 -46726-4 0  9995,2 53607  53.2165 346.1045 0001116  79.0579 281.0538 15.08854760106653,6917.835,95.437,540.472,538.928,0.0
53607.0,STARLINK-4591,PAYLOAD,2024-08-01 18:50:59,15.08853285,0.0001226,53.2173,344.9082,116.3881,243.7237,0.00014191,1.972e-05,0.0,0 STARLINK-4591,1 53607U 22104V   24214.78540912  .00001972  00000-0  14191-3 0  9997,2 53607  53.2173 344.9082 0001226 116.3881 243.7237 15.08853285107385,6917.84,95.437,540.553,538.857,0.0
53607.0,STARLINK-4591,PAYLOAD,2024-08-02 12:20:16,15.08829461,0.0001521,53.2193,341.645,97.6888,262.4277,-4.0042e-05,-9.25e-06,0.0,0 STARLINK-4591,1 53607U 22104V   24215.51407460 -.00000925  00000-0 -40042-4 0  9993,2 53607  53.2193 341.6450 0001521  97.6888 262.4277 15.08829461106803,6917.913,95.438,540.83,538.725,0.0
53607.0,STARLINK-4591,PAYLOAD,2024-08-02 13:55:39,15.08830742,0.0001567,53.2194,341.3478,98.6717,261.4453,-3.0582e-05,-7.75e-06,0.0,0 STARLINK-4591,1 53607U 22104V   24215.58031392 -.00000775  00000-0 -30582-4 0  9998,2 53607  53.2194 341.3478 0001567  98.6717 261.4453 15.08830742107500,6917.909,95.438,540.858,538.69,0.0
53607.0,STARLINK-4591,PAYLOAD,2024-08-02 18:41:48,15.08836931,0.0001325,53.2183,340.4532,83.2015,276.9128,5.5509e-05,5.96e-06,0.0,0 STARLINK-4591,1 53607U 22104V   24215.77902899  .00000596  00000-0  55509-4 0  9993,2 53607  53.2183 340.4532 0001325  83.2015 276.9128 15.08836931106844,6917.89,95.438,540.671,538.838,0.0
53607.0,STARLINK-4591,PAYLOAD,2024-08-03 12:11:01,15.08846842,0.0001324,53.2168,337.181,85.6659,274.4485,-4.0617e-05,-9.34e-06,0.0,0 STARLINK-4591,1 53607U 22104V   24216.50766084 -.00000934  00000-0 -40617-4 0  9991,2 53607  53.2168 337.1810 0001324  85.6659 274.4485 15.08846842106951,6917.859,95.437,540.64,538.809,0.0
53607.0,STARLINK-4591,PAYLOAD,2024-08-03 15:21:47,15.08855727,0.0001242,53.2156,336.5895,92.1895,267.924,6.1389e-05,6.9e-06,0.0,0 STARLINK-4591,1 53607U 22104V   24216.64013560  .00000690  00000-0  61389-4 0  9996,2 53607  53.2156 336.5895 0001242  92.1895 267.9240 15.08855727107665,6917.832,95.437,540.557,538.838,0.0
53607.0,STARLINK-4591,PAYLOAD,2024-08-03 18:32:33,15.08860164,0.0001254,53.2156,335.9905,70.5054,289.6073,0.00023128,3.397e-05,0.0,0 STARLINK-4591,1 53607U 22104V   24216.77261261  .00003397  00000-0  23128-3 0  9998,2 53607  53.2156 335.9905 0001254  70.5054 289.6073 15.08860164106991,6917.819,95.436,540.551,538.816,0.0
53607.0,STARLINK-4591,PAYLOAD,2024-08-04 12:01:49,15.08833177,0.0002398,53.2187,332.726,102.9788,257.1472,0.00015709,2.212e-05,0.0,0 STARLINK-4591,1 53607U 22104V   24217.50127076  .00002212  00000-0  15709-3 0  9996,2 53607  53.2187 332.7260 0002398 102.9788 257.1472 15.08833177107109,6917.901,95.438,541.425,538.107,0.0
53607.0,STARLINK-4591,PAYLOAD,2024-08-04 13:37:12,15.08838142,0.0002103,53.2178,332.4262,117.5274,242.5932,0.00012555,1.71e-05,0.0,0 STARLINK-4591,1 53607U 22104V   24217.56750641  .00001710  00000-0  12555-3 0  9990,2 53607  53.2178 332.4262 0002103 117.5274 242.5932 15.08838142107807,6917.886,95.438,541.206,538.296,0.0
53607.0,STARLINK-4591,PAYLOAD,2024-08-04 15:12:35,15.08840793,0.0002265,53.2167,332.1273,114.3592,245.7637,0.00011793,1.589e-05,0.0,0 STARLINK-4591,1 53607U 22104V   24217.63374484  .00001589  00000-0  11793-3 0  9992,2 53607  53.2167 332.1273 0002265 114.3592 245.7637 15.08840793107814,6917.878,95.438,541.31,538.176,0.0
53607.0,STARLINK-4591,PAYLOAD,2024-08-05 00:44:53,15.08861546,0.0001646,53.2171,330.3434,83.7083,276.4096,0.00047832,7.337e-05,0.0,0 STARLINK-4591,1 53607U 22104V   24218.03117765  .00007337  00000-0  47832-3 0  9994,2 53607  53.2171 330.3434 0001646  83.7083 276.4096 15.08861546107183,6917.815,95.436,540.818,538.541,0.0
53607.0,STARLINK-4591,PAYLOAD,2024-08-05 13:27:58,15.08850227,0.0001491,53.2172,327.9628,103.3396,256.7762,0.00013429,1.85e-05,0.0,0 STARLINK-4591,1 53607U 22104V   24218.56109712  .00001850  00000-0  13429-3 0  9994,2 53607  53.2172 327.9628 0001491 103.3396 256.7762 15.08850227107269,6917.849,95.437,540.746,538.683,0.0
